PHISAT 2                
1 60470U 24149C   26068.78834181  .00008925  00000+0  31421-3 0  9996
2 60470  97.3806 148.6498 0001175 168.6230 191.5037 15.29548631 86792
STARLINK-33817          
1 63583U 25076Q   26068.09636431  .00036914  00000+0  13443-2 0  9998
2 63583  43.0025 324.7015 0001370 281.3058  78.7640 15.27578190 51734
